ONEWEB-0593             
1 54659U 22166T   23274.83166033 -.00000082  00000+0 -23009-3 0  9992
2 54659  87.9184  80.9492 0001575 100.2640 259.8671 13.21819952 40846
ONEWEB-0594             
1 54660U 22166U   23274.85056249  .00000036  00000+0  56460-4 0  9998
2 54660  87.9179  80.9429 0001947  90.1546 269.9811 13.21824285 40862
ONEWEB-0595             
1 54661U 22166V   23274.82745177  .00000101  00000+0  21231-3 0  9991
2 54661  87.9178  80.9406 0001682  80.1450 279.9874 13.21825410 40834
ONEWEB-0596             
1 54662U 22166W   23274.87789448  .00000153  00000+0  33999-3 0  9997
2 54662  87.9181  80.9319 0001412 101.6093 258.5199 13.21824060 40849
ONEWEB-0597             
1 54663U 22166X   23274.85897135 -.00000153  00000+0 -40142-3 0  9999
2 54663  87.9180  80.9363 0001811 104.4941 255.6394 13.21825824 40848
ONEWEB-0600             
1 54664U 22166Y   23274.84006236  .00000092  00000+0  19219-3 0  9994
2 54664  87.9184  80.9893 0001840  99.2136 260.9206 13.21827298 40815
ONEWEB-0601             
1 54665U 22166Z   23274.83268546 -.00000137  00000+0 -36204-3 0  9993
2 54665  87.9184  80.9412 0001299 100.7035 259.4246 13.21827226 41007
ONEWEB-0602             
1 54666U 22166AA  23274.87580850  .00000016  00000+0  77742-5 0  9991
2 54666  87.9180  80.9400 0001665 100.0325 260.0996 13.21825775 40852
